IRIDIUM 112             
1 41925U 17003J   23318.56081366  .00000130  00000+0  39474-4 0  9998
2 41925  86.3937 123.5364 0001989  85.5326 274.6097 14.34217943357760
IRIDIUM 111             
1 41926U 17003K   23318.54812759  .00000063  00000+0  15494-4 0  9996
2 41926  86.3942 123.5916 0001882  96.5588 263.5822 14.34218447357712
IRIDIUM 113             
1 42803U 17039A   23318.87694051  .00000394  00000+0  13373-3 0  9999
2 42803  86.3993 357.2046 0001961  93.3779 266.7641 14.34217097335695
IRIDIUM 123             
1 42804U 17039B   23318.91841320  .00000413  00000+0  14057-3 0  9990
2 42804  86.4009  28.6727 0001923  94.1088 266.0327 14.34218590334467
IRIDIUM 120             
1 42805U 17039C   23318.87059368  .00000373  00000+0  12618-3 0  9995
2 42805  86.3982 357.1123 0002104  93.6210 266.5227 14.34216901335683
IRIDIUM 115             
1 42806U 17039D   23318.86193704  .00000169  00000+0  44266-4 0  9996
2 42806  86.4520 357.1083 0002046  99.4737 260.6695 14.43336085337919
IRIDIUM 118             
1 42807U 17039E   23318.46174867  .00000397  00000+0  13483-3 0  9991
2 42807  86.4009  28.8656 0002096  94.2477 265.8958 14.34218080334391
IRIDIUM 117             
1 42808U 17039F   23318.89939159  .00000404  00000+0  13733-3 0  9999
2 42808  86.4008  28.6491 0002076  98.2483 261.8949 14.34215920334481
